ONEWEB-0588             
1 55153U 23004P   24342.32559193  .00000103  00000+0  22787-3 0  9992
2 55153  87.9111  86.3080 0001854 120.2341 239.8974 13.18687913 96301
ONEWEB-0598             
1 55154U 23004Q   24342.11754504  .00000370  00000+0  10092-2 0  9994
2 55154  87.8888 132.0897 0000894 113.1747 246.9475 13.11415850 92898
ONEWEB-0599             
1 55155U 23004R   24342.10903138  .00000057  00000+0  11394-3 0  9992
2 55155  87.9096 116.8394 0001396  95.7925 264.3366 13.17651139 94123
ONEWEB-0614             
1 55156U 23004S   24341.88357165  .00000492  00000+0  13528-2 0  9993
2 55156  87.8889 132.1423 0001855 101.0197 259.1140 13.11416527 92796
ONEWEB-0616             
1 55157U 23004T   24342.15122324 -.00000010  00000+0 -59557-4 0  9994
2 55157  87.9092 116.8314 0001530  55.2139 304.9136 13.17650956 94347
ONEWEB-0617             
1 55158U 23004U   24342.48207456  .00000455  00000+0  12482-2 0  9996
2 55158  87.8882 132.0115 0001703 108.4193 251.7120 13.11417490 92906
ONEWEB-0618             
1 55159U 23004V   24342.50728739  .00000805  00000+0  31997-3 0  9994
2 55159  86.9087  31.8238 0015251  84.2376 276.0555 14.27488075100067
ONEWEB-0619             
1 55160U 23004W   24342.10735035  .00000037  00000+0  61513-4 0  9994
2 55160  87.9090 116.8172 0002054  91.6580 268.4787 13.17650945 94239
